ONEWEB-0020             
1 45133U 20008C   24354.92264499 -.00000431  00000+0 -12719-2 0  9990
2 45133  87.8899 144.6663 0001678 102.6475 257.4840 13.10373290237847
ONEWEB-0021             
1 45134U 20008D   24354.93760832  .00000349  00000+0  96233-3 0  9994
2 45134  87.8903 144.6873 0001393  91.4950 268.6337 13.10377248238241
ONEWEB-0023             
1 45136U 20008F   24354.95009949  .00007998  00000+0  22859-1 0  9991
2 45136  87.8914 144.6720 0002362  93.9832 266.1565 13.10366275237556
ONEWEB-0024             
1 45137U 20008G   24354.92097923 -.00000483  00000+0 -14189-2 0  9990
2 45137  87.8890 144.6469 0001375  96.3829 263.7455 13.10373151237716
ONEWEB-0025             
1 45138U 20008H   24354.93925010  .00000452  00000+0  12588-2 0  9994
2 45138  87.8890 144.6439 0001618  76.1799 283.9508 13.10379964238044
ONEWEB-0026             
1 45139U 20008J   24354.85740092 -.00000146  00000+0 -44743-3 0  9992
2 45139  87.8900 129.5308 0001468 107.8214 252.3074 13.11415029239763
ONEWEB-0028             
1 45140U 20008K   24354.81247418 -.00000019  00000+0 -89205-4 0  9996
2 45140  87.8900 129.5719 0001692  80.1410 279.9909 13.11420319237275
ONEWEB-0032             
1 45141U 20008L   24354.95420957  .00000701  00000+0  19711-2 0  9992
2 45141  87.8890 144.6899 0001537  89.1136 271.0167 13.10374100237884
